{"type":"FeatureCollection","features":[{"type":"Feature","properties":{"id":1},"geometry":{"type":"Polygon","coordinates":[[[2.65783,39.51736],[2.65532,39.5233],[2.65074,39.52808],[2.64691,39.53362],[2.6397,39.53664],[2.63155,39.54082],[2.62093,39.5425],[2.61018,39.53999],[2.60523,39.53207],[2.59711,39.52597],[2.59775,39.51736],[2.59948,39.50934],[2.60569,39.50291],[2.61362,39.49838],[2.62186,39.49441],[2.63155,39.50257],[2.63864,39.50058],[2.6525,39.49518],[2.64689,39.50879],[2.66451,39.50912],[2.65783,39.51736]]]}},{"type":"Feature","properties":{"id":2},"geometry":{"type":"Polygon","coordinates":[[[2.61718,39.53486],[2.61663,39.53811],[2.61524,39.54135],[2.60903,39.54058],[2.6086,39.54662],[2.60363,39.54237],[2.59889,39.5461],[2.59388,39.54519],[2.59498,39.5397],[2.59514,39.53699],[2.595,39.53486],[2.59468,39.53263],[2.59235,39.52856],[2.59539,39.52614],[2.59928,39.52456],[2.60363,39.52327],[2.60754,39.52562],[2.61007,39.52805],[2.61073,39.5309],[2.61413,39.53224],[2.61718,39.53486]]]}},{"type":"Feature","properties":{"id":3},"geometry":{"type":"Polygon","coordinates":[[[2.66916,39.49916],[2.66954,39.50414],[2.67658,39.51424],[2.66499,39.51545],[2.65768,39.51829],[2.6496,39.516],[2.64281,39.51523],[2.63514,39.51447],[2.63474,39.50746],[2.62249,39.50593],[2.61856,39.49916],[2.63195,39.49475],[2.63305,39.48991],[2.63018,39.47859],[2.64068,39.47803],[2.6496,39.48402],[2.65831,39.47854],[2.66816,39.47951],[2.67532,39.48478],[2.67579,39.49261],[2.66916,39.49916]]]}},{"type":"Feature","properties":{"id":4},"geometry":{"type":"Polygon","coordinates":[[[3.30325,39.40205],[3.3018,39.40548],[3.30549,39.41179],[3.3006,39.41532],[3.29505,39.41857],[3.28807,39.41465],[3.28243,39.41541],[3.27783,39.4129],[3.26968,39.41233],[3.26598,39.40757],[3.26406,39.40205],[3.26788,39.397],[3.27478,39.39462],[3.27651,39.38981],[3.28387,39.39211],[3.28807,39.3905],[3.29529,39.38496],[3.3001,39.38932],[3.30048,39.39511],[3.30786,39.39711],[3.30325,39.40205]]]}},{"type":"Feature","properties":{"id":5},"geometry":{"type":"Polygon","coordinates":[[[3.25754,39.38801],[3.25251,39.39481],[3.25196,39.40291],[3.23957,39.40312],[3.23274,39.40562],[3.2253,39.40262],[3.21533,39.41162],[3.21547,39.39842],[3.20986,39.39664],[3.20689,39.39261],[3.19636,39.38801],[3.20939,39.38403],[3.19967,39.37369],[3.20723,39.36887],[3.21897,39.37302],[3.2253,39.36593],[3.23254,39.37088],[3.24454,39.36765],[3.2507,39.37382],[3.25367,39.38092],[3.25754,39.38801]]]}},{"type":"Feature","properties":{"id":6},"geometry":{"type":"Polygon","coordinates":[[[3.15632,39.87109],[3.15513,39.87478],[3.15111,39.87709],[3.15384,39.88535],[3.14716,39.88716],[3.14038,39.88178],[3.13519,39.88337],[3.13082,39.88122],[3.12281,39.88091],[3.1279,39.87421],[3.1209,39.87109],[3.12285,39.86671],[3.12178,39.8607],[3.13274,39.86301],[3.13317,39.85402],[3.14038,39.85317],[3.14545,39.85908],[3.1529,39.85784],[3.15766,39.86143],[3.15719,39.86689],[3.15632,39.87109]]]}},{"type":"Feature","properties":{"id":7},"geometry":{"type":"Polygon","coordinates":[[[3.11373,39.88931],[3.10546,39.89227],[3.11077,39.89891],[3.10376,39.90009],[3.09723,39.89795],[3.09358,39.89966],[3.08732,39.90412],[3.08075,39.90289],[3.08279,39.89534],[3.07326,39.89438],[3.07883,39.88931],[3.07374,39.88435],[3.07565,39.87929],[3.08415,39.87932],[3.08695,39.87362],[3.09358,39.87983],[3.09779,39.87932],[3.10423,39.87803],[3.10571,39.88252],[3.11224,39.88464],[3.11373,39.88931]]]}},{"type":"Feature","properties":{"id":8},"geometry":{"type":"Polygon","coordinates":[[[3.15028,39.88423],[3.15529,39.88756],[3.15103,39.88929],[3.14683,39.88937],[3.14525,39.89198],[3.14197,39.89292],[3.13858,39.89225],[3.13389,39.89279],[3.13217,39.88971],[3.13441,39.88612],[3.13455,39.88423],[3.13445,39.88235],[3.13336,39.87942],[3.13494,39.87679],[3.13824,39.87539],[3.14197,39.87837],[3.14424,39.87887],[3.14863,39.87718],[3.15281,39.87817],[3.1539,39.88125],[3.15028,39.88423]]]}},{"type":"Feature","properties":{"id":9},"geometry":{"type":"Polygon","coordinates":[[[3.15643,39.84158],[3.15035,39.84662],[3.14692,39.85092],[3.13943,39.85135],[3.1354,39.8539],[3.1302,39.85958],[3.12233,39.86021],[3.12028,39.85209],[3.11154,39.85201],[3.11492,39.8454],[3.10383,39.84158],[3.1082,39.83608],[3.11618,39.83375],[3.11515,39.82564],[3.12182,39.82173],[3.1302,39.83085],[3.13705,39.82537],[3.13896,39.83231],[3.14742,39.83196],[3.15614,39.8351],[3.15643,39.84158]]]}},{"type":"Feature","properties":{"id":10},"geometry":{"type":"Polygon","coordinates":[[[1.49516,38.88336],[1.49531,38.88556],[1.49589,38.8886],[1.49136,38.88849],[1.49026,38.89222],[1.48652,38.89221],[1.48326,38.89108],[1.48042,38.88982],[1.48029,38.88684],[1.47476,38.8863],[1.47696,38.88336],[1.47429,38.88031],[1.47901,38.87917],[1.47841,38.87478],[1.48238,38.87358],[1.48652,38.87667],[1.49045,38.87404],[1.49174,38.87784],[1.49221,38.88018],[1.49472,38.88131],[1.49516,38.88336]]]}},{"type":"Feature","properties":{"id":11},"geometry":{"type":"Polygon","coordinates":[[[1.40285,38.86473],[1.40749,38.87114],[1.40346,38.87681],[1.39663,38.88038],[1.39152,38.88764],[1.38185,38.88405],[1.37318,38.88525],[1.36727,38.88017],[1.36172,38.87598],[1.3608,38.86999],[1.3503,38.86473],[1.36032,38.85935],[1.35832,38.85158],[1.36288,38.84465],[1.36941,38.83528],[1.38185,38.84027],[1.39465,38.83444],[1.40077,38.8447],[1.40361,38.85257],[1.40797,38.85821],[1.40285,38.86473]]]}},{"type":"Feature","properties":{"id":12},"geometry":{"type":"Polygon","coordinates":[[[1.48095,38.74861],[1.479,38.75132],[1.47924,38.7548],[1.47811,38.75915],[1.47463,38.76395],[1.46815,38.7594],[1.46483,38.75647],[1.45608,38.76139],[1.45228,38.75748],[1.4558,38.75169],[1.44962,38.74861],[1.45087,38.74429],[1.45326,38.74028],[1.45668,38.73646],[1.46241,38.73502],[1.46815,38.73997],[1.4731,38.7369],[1.47648,38.73978],[1.47901,38.74253],[1.48707,38.74388],[1.48095,38.74861]]]}},{"type":"Feature","properties":{"id":13},"geometry":{"type":"Polygon","coordinates":[[[1.50914,38.69672],[1.51078,38.70068],[1.50417,38.70189],[1.50479,38.70718],[1.49839,38.70496],[1.49491,38.70576],[1.48946,38.70961],[1.48429,38.70796],[1.48488,38.70232],[1.47982,38.70049],[1.48195,38.69672],[1.48252,38.69362],[1.48668,38.69212],[1.4851,38.68633],[1.49002,38.68514],[1.49491,38.68228],[1.49937,38.68617],[1.50458,38.68648],[1.50703,38.68994],[1.50939,38.6931],[1.50914,38.69672]]]}},{"type":"Feature","properties":{"id":14},"geometry":{"type":"Polygon","coordinates":[[[6.66159,43.26334],[6.66649,43.26763],[6.66505,43.27214],[6.66041,43.27509],[6.65346,43.27316],[6.64931,43.27287],[6.64514,43.2732],[6.63735,43.276],[6.63977,43.26867],[6.6381,43.26614],[6.63056,43.26334],[6.63326,43.25933],[6.63775,43.25688],[6.64069,43.25421],[6.64287,43.24811],[6.64931,43.25173],[6.65282,43.25503],[6.6592,43.25286],[6.66116,43.25672],[6.66826,43.2586],[6.66159,43.26334]]]}},{"type":"Feature","properties":{"id":15},"geometry":{"type":"Polygon","coordinates":[[[6.72503,43.20825],[6.7246,43.21434],[6.72312,43.22103],[6.71476,43.22361],[6.70906,43.22911],[6.70025,43.22663],[6.69248,43.22664],[6.68044,43.22922],[6.68464,43.21697],[6.68272,43.21263],[6.66735,43.20825],[6.67886,43.2029],[6.67163,43.19226],[6.68092,43.18779],[6.69301,43.19112],[6.70025,43.18135],[6.71032,43.1844],[6.7187,43.18872],[6.71806,43.1983],[6.72101,43.20306],[6.72503,43.20825]]]}},{"type":"Feature","properties":{"id":16},"geometry":{"type":"Polygon","coordinates":[[[6.65972,43.26194],[6.6582,43.26637],[6.65186,43.26829],[6.64886,43.27081],[6.64606,43.27511],[6.64049,43.27532],[6.63701,43.27018],[6.63281,43.27008],[6.62679,43.2696],[6.62844,43.26496],[6.62165,43.26194],[6.62794,43.25881],[6.63085,43.25656],[6.6292,43.24999],[6.63448,43.24772],[6.64049,43.25261],[6.64436,43.25278],[6.65032,43.25153],[6.64991,43.25668],[6.65635,43.25798],[6.65972,43.26194]]]}},{"type":"Feature","properties":{"id":17},"geometry":{"type":"Polygon","coordinates":[[[7.09101,43.5347],[7.0951,43.54074],[7.09749,43.54954],[7.08992,43.55478],[7.07674,43.54839],[7.07095,43.55174],[7.06456,43.54983],[7.05659,43.54991],[7.04795,43.54756],[7.03849,43.54282],[7.04942,43.5347],[7.05035,43.52955],[7.05535,43.52598],[7.05382,43.51656],[7.06267,43.5151],[7.07095,43.51988],[7.07705,43.52026],[7.08792,43.51673],[7.09812,43.51952],[7.08957,43.53005],[7.09101,43.5347]]]}},{"type":"Feature","properties":{"id":18},"geometry":{"type":"Polygon","coordinates":[[[7.09204,43.56222],[7.09093,43.56734],[7.08851,43.57231],[7.08339,43.5759],[7.07699,43.57767],[7.07046,43.57205],[7.06503,43.57507],[7.0602,43.57309],[7.0604,43.56785],[7.05666,43.56567],[7.04809,43.56222],[7.04869,43.55678],[7.0571,43.55475],[7.0584,43.54945],[7.06381,43.54648],[7.07046,43.54607],[7.07541,43.5505],[7.08402,43.54786],[7.09021,43.55119],[7.08993,43.55736],[7.09204,43.56222]]]}},{"type":"Feature","properties":{"id":19},"geometry":{"type":"Polygon","coordinates":[[[7.3836,43.69357],[7.38139,43.70196],[7.3708,43.70642],[7.3632,43.70987],[7.35776,43.71713],[7.34781,43.71248],[7.33691,43.71936],[7.33504,43.70708],[7.32002,43.70909],[7.31487,43.7018],[7.31409,43.69357],[7.31426,43.68518],[7.32205,43.67917],[7.33529,43.68031],[7.33845,43.67142],[7.34781,43.67015],[7.35623,43.67363],[7.36481,43.67556],[7.37153,43.68031],[7.3783,43.68595],[7.3836,43.69357]]]}},{"type":"Feature","properties":{"id":20},"geometry":{"type":"Polygon","coordinates":[[[7.36071,43.68287],[7.36496,43.69169],[7.35043,43.69448],[7.35313,43.70772],[7.33775,43.70202],[7.32965,43.70235],[7.31767,43.71124],[7.31649,43.6968],[7.29764,43.70076],[7.29686,43.69106],[7.28915,43.68287],[7.30723,43.67726],[7.29878,43.66561],[7.31174,43.6639],[7.32153,43.66363],[7.32965,43.65883],[7.34138,43.65511],[7.34602,43.66554],[7.35882,43.66657],[7.36801,43.67328],[7.36071,43.68287]]]}},{"type":"Feature","properties":{"id":21},"geometry":{"type":"Polygon","coordinates":[[[7.29846,43.69731],[7.29885,43.7027],[7.28866,43.70366],[7.29005,43.71082],[7.28487,43.71527],[7.27729,43.70761],[7.27251,43.70862],[7.26935,43.70571],[7.26106,43.70638],[7.2549,43.7029],[7.25854,43.69731],[7.25405,43.6915],[7.25797,43.68651],[7.2665,43.68588],[7.27172,43.68414],[7.27729,43.67903],[7.2834,43.68283],[7.28667,43.68737],[7.29129,43.68948],[7.29268,43.69346],[7.29846,43.69731]]]}},{"type":"Feature","properties":{"id":22},"geometry":{"type":"Polygon","coordinates":[[[7.34723,43.66377],[7.3475,43.67153],[7.34903,43.68197],[7.3306,43.67874],[7.32702,43.68877],[7.31646,43.68749],[7.30728,43.68548],[7.30074,43.6804],[7.28436,43.68171],[7.28848,43.67076],[7.28998,43.66377],[7.29282,43.65786],[7.28381,43.64552],[7.30375,43.65032],[7.3096,43.64754],[7.31646,43.64065],[7.32417,43.64551],[7.32892,43.65057],[7.34482,43.64792],[7.35138,43.65504],[7.34723,43.66377]]]}},{"type":"Feature","properties":{"id":23},"geometry":{"type":"Polygon","coordinates":[[[6.2215,42.97632],[6.21818,42.9784],[6.21873,42.98128],[6.21577,42.98259],[6.21489,42.98827],[6.20985,42.98585],[6.2047,42.98851],[6.20278,42.9838],[6.197,42.9835],[6.19401,42.98028],[6.19796,42.97632],[6.19634,42.97295],[6.2003,42.97099],[6.20421,42.97036],[6.20638,42.9681],[6.20985,42.9656],[6.21478,42.96464],[6.2189,42.96674],[6.22026,42.9705],[6.22413,42.97275],[6.2215,42.97632]]]}},{"type":"Feature","properties":{"id":24},"geometry":{"type":"Polygon","coordinates":[[[6.21412,43.00219],[6.21413,43.00884],[6.20579,43.0124],[6.1982,43.0135],[6.19688,43.02435],[6.18752,43.02212],[6.17961,43.02089],[6.17823,43.01202],[6.16616,43.01412],[6.16387,43.0081],[6.16603,43.00219],[6.15822,42.99486],[6.1663,42.99033],[6.17393,42.9878],[6.17973,42.98376],[6.18752,42.98209],[6.19401,42.9868],[6.20093,42.98798],[6.20863,42.99038],[6.20339,42.99822],[6.21412,43.00219]]]}},{"type":"Feature","properties":{"id":25},"geometry":{"type":"Polygon","coordinates":[[[6.21492,43.02054],[6.2181,43.02421],[6.21831,43.02886],[6.21451,43.03227],[6.20804,43.03144],[6.20343,43.03393],[6.20016,43.02829],[6.19369,43.03086],[6.19279,43.02649],[6.18541,43.02505],[6.18704,43.02054],[6.19347,43.01805],[6.18964,43.01283],[6.19502,43.01163],[6.19858,43.00905],[6.20343,43.00786],[6.20718,43.01168],[6.2121,43.01137],[6.2126,43.01542],[6.22005,43.01639],[6.21492,43.02054]]]}},{"type":"Feature","properties":{"id":26},"geometry":{"type":"Polygon","coordinates":[[[6.22811,42.96295],[6.22574,42.96602],[6.22228,42.96788],[6.22219,42.97219],[6.21862,42.97516],[6.21346,42.97233],[6.20951,42.97228],[6.20445,42.97249],[6.20352,42.9685],[6.2003,42.96624],[6.20053,42.96295],[6.20439,42.96068],[6.20205,42.95657],[6.20538,42.9544],[6.21002,42.95481],[6.21346,42.9516],[6.2173,42.95386],[6.22225,42.95364],[6.22757,42.95506],[6.22451,42.96019],[6.22811,42.96295]]]}},{"type":"Feature","properties":{"id":27},"geometry":{"type":"Polygon","coordinates":[[[9.17453,41.38546],[9.17974,41.39261],[9.16953,41.39575],[9.16656,41.40181],[9.16043,41.40752],[9.15111,41.40138],[9.14446,41.40122],[9.1344,41.40316],[9.12536,41.39985],[9.12371,41.39231],[9.12412,41.38546],[9.13495,41.38142],[9.12604,41.37144],[9.14085,41.37459],[9.14538,41.37187],[9.15111,41.37014],[9.16021,41.36392],[9.16422,41.37159],[9.17272,41.37338],[9.17899,41.37849],[9.17453,41.38546]]]}},{"type":"Feature","properties":{"id":28},"geometry":{"type":"Polygon","coordinates":[[[9.22196,41.38858],[9.22198,41.39128],[9.22071,41.39391],[9.21672,41.39445],[9.21563,41.39913],[9.21117,41.39578],[9.20878,41.39424],[9.20583,41.39424],[9.20518,41.39193],[9.19745,41.39201],[9.2016,41.38858],[9.20039,41.38588],[9.20526,41.38528],[9.20687,41.38403],[9.2072,41.37917],[9.21117,41.3805],[9.21548,41.37837],[9.2159,41.38357],[9.21845,41.38451],[9.22133,41.38604],[9.22196,41.38858]]]}},{"type":"Feature","properties":{"id":29},"geometry":{"type":"Polygon","coordinates":[[[9.19149,41.37934],[9.18615,41.38489],[9.18122,41.389],[9.18271,41.39922],[9.17044,41.39473],[9.16394,41.40014],[9.15424,41.4023],[9.14512,41.39926],[9.14312,41.39097],[9.14537,41.38398],[9.14204,41.37934],[9.13832,41.37294],[9.14356,41.36795],[9.15183,41.36652],[9.15542,41.35918],[9.16394,41.35885],[9.16988,41.36527],[9.17948,41.36289],[9.185,41.36757],[9.19241,41.37222],[9.19149,41.37934]]]}},{"type":"Feature","properties":{"id":30},"geometry":{"type":"Polygon","coordinates":[[[9.45883,41.2365],[9.46258,41.24434],[9.44722,41.24544],[9.44669,41.25288],[9.4393,41.25564],[9.43122,41.25823],[9.42449,41.25241],[9.4136,41.25515],[9.41424,41.24599],[9.41329,41.24098],[9.41334,41.2365],[9.4143,41.23227],[9.41573,41.22785],[9.41969,41.22429],[9.42332,41.21782],[9.43122,41.21978],[9.43901,41.21805],[9.44508,41.22183],[9.457,41.22209],[9.44799,41.23231],[9.45883,41.2365]]]}},{"type":"Feature","properties":{"id":31},"geometry":{"type":"Polygon","coordinates":[[[9.49006,41.21699],[9.49498,41.22374],[9.48862,41.22853],[9.48184,41.23168],[9.47737,41.23926],[9.46797,41.23145],[9.46096,41.23359],[9.44759,41.23856],[9.44912,41.22752],[9.442,41.22348],[9.43971,41.21699],[9.44191,41.21048],[9.44965,41.20675],[9.4489,41.1968],[9.46233,41.20365],[9.46797,41.19126],[9.47847,41.19212],[9.48131,41.20287],[9.48806,41.20576],[9.50097,41.20874],[9.49006,41.21699]]]}},{"type":"Feature","properties":{"id":32},"geometry":{"type":"Polygon","coordinates":[[[9.42679,41.20288],[9.42855,41.2052],[9.42748,41.20747],[9.42428,41.2082],[9.42338,41.21264],[9.41925,41.21303],[9.41515,41.21259],[9.41283,41.20968],[9.41118,41.20739],[9.4121,41.20467],[9.41006,41.20288],[9.41193,41.20105],[9.41211,41.19888],[9.41167,41.19485],[9.41629,41.19586],[9.41925,41.19378],[9.42337,41.19315],[9.42627,41.19545],[9.42517,41.19958],[9.42757,41.2008],[9.42679,41.20288]]]}},{"type":"Feature","properties":{"id":33},"geometry":{"type":"Polygon","coordinates":[[[9.42847,41.21455],[9.43237,41.21971],[9.43434,41.22718],[9.42006,41.22336],[9.41626,41.22524],[9.41174,41.23318],[9.40564,41.229],[9.39938,41.22764],[9.39038,41.22649],[9.39152,41.2196],[9.38494,41.21455],[9.38917,41.20891],[9.39047,41.20266],[9.40043,41.20258],[9.40627,41.2016],[9.41174,41.19775],[9.41769,41.20047],[9.42355,41.20205],[9.42625,41.20644],[9.42833,41.21041],[9.42847,41.21455]]]}},{"type":"Feature","properties":{"id":34},"geometry":{"type":"Polygon","coordinates":[[[9.57343,41.09712],[9.57233,41.10216],[9.56731,41.10558],[9.56294,41.10853],[9.56074,41.11744],[9.55216,41.11334],[9.54463,41.11493],[9.54111,41.10881],[9.54049,41.10364],[9.53134,41.10232],[9.53017,41.09712],[9.53844,41.09369],[9.53634,41.08827],[9.53695,41.08102],[9.54607,41.08269],[9.55216,41.07776],[9.56028,41.0779],[9.56346,41.08515],[9.57318,41.08537],[9.5724,41.09206],[9.57343,41.09712]]]}},{"type":"Feature","properties":{"id":35},"geometry":{"type":"Polygon","coordinates":[[[9.56213,41.09883],[9.56393,41.10145],[9.56197,41.10359],[9.55861,41.10429],[9.55629,41.10555],[9.55345,41.10639],[9.54945,41.10831],[9.54616,41.10655],[9.54585,41.10308],[9.54141,41.10184],[9.54262,41.09883],[9.5396,41.09537],[9.54228,41.09259],[9.54843,41.09352],[9.54917,41.08869],[9.55345,41.08785],[9.5579,41.08831],[9.55917,41.09278],[9.56246,41.0938],[9.56661,41.09555],[9.56213,41.09883]]]}},{"type":"Feature","properties":{"id":36},"geometry":{"type":"Polygon","coordinates":[[[9.61386,41.14768],[9.61941,41.15313],[9.61082,41.15507],[9.61298,41.16397],[9.60707,41.1701],[9.5976,41.17037],[9.58828,41.16974],[9.58223,41.16395],[9.57736,41.15899],[9.58073,41.1519],[9.56754,41.14768],[9.57098,41.14103],[9.57379,41.13437],[9.58378,41.13306],[9.58817,41.12535],[9.5976,41.13384],[9.60281,41.13534],[9.61017,41.13438],[9.61454,41.13822],[9.61517,41.14329],[9.61386,41.14768]]]}},{"type":"Feature","properties":{"id":37},"geometry":{"type":"Polygon","coordinates":[[[9.59628,41.12014],[9.59889,41.12622],[9.58593,41.12649],[9.58507,41.13127],[9.58094,41.13525],[9.57455,41.13139],[9.57023,41.13038],[9.56395,41.13137],[9.56004,41.12825],[9.55673,41.12459],[9.55165,41.12014],[9.56018,41.11654],[9.56199,41.11312],[9.56358,41.10852],[9.56919,41.10744],[9.57455,41.10257],[9.58245,41.10143],[9.58724,41.1067],[9.59205,41.11036],[9.59221,41.11572],[9.59628,41.12014]]]}},{"type":"Feature","properties":{"id":38},"geometry":{"type":"Polygon","coordinates":[[[9.49516,39.11054],[9.48714,39.11333],[9.48426,39.11517],[9.48743,39.12267],[9.47926,39.11832],[9.47597,39.11826],[9.47268,39.11832],[9.46428,39.12292],[9.46246,39.11809],[9.46043,39.11442],[9.45782,39.11054],[9.46452,39.10768],[9.46639,39.10518],[9.46703,39.10107],[9.47043,39.09742],[9.47597,39.09753],[9.48033,39.10021],[9.48691,39.09895],[9.49104,39.10212],[9.49093,39.1068],[9.49516,39.11054]]]}},{"type":"Feature","properties":{"id":39},"geometry":{"type":"Polygon","coordinates":[[[9.55877,39.09783],[9.54878,39.10184],[9.54992,39.10744],[9.54637,39.11227],[9.53848,39.11145],[9.53273,39.11425],[9.52528,39.11546],[9.52352,39.10758],[9.52163,39.10403],[9.51085,39.1033],[9.5157,39.09783],[9.51035,39.09223],[9.51268,39.08662],[9.52331,39.08785],[9.52693,39.08409],[9.53273,39.07739],[9.5387,39.0837],[9.54857,39.08106],[9.54767,39.08947],[9.55084,39.0933],[9.55877,39.09783]]]}},{"type":"Feature","properties":{"id":40},"geometry":{"type":"Polygon","coordinates":[[[9.57495,39.09828],[9.5811,39.10571],[9.58007,39.11432],[9.56885,39.11678],[9.55783,39.11357],[9.55138,39.11502],[9.54427,39.11512],[9.53693,39.11358],[9.53674,39.10646],[9.5255,39.10475],[9.5174,39.09828],[9.52533,39.09177],[9.53566,39.0895],[9.53336,39.07921],[9.5435,39.07965],[9.55138,39.08444],[9.55889,39.08049],[9.56189,39.08715],[9.57769,39.08358],[9.57279,39.09293],[9.57495,39.09828]]]}},{"type":"Feature","properties":{"id":41},"geometry":{"type":"Polygon","coordinates":[[[9.57191,39.09058],[9.57425,39.0955],[9.56548,39.09668],[9.56579,39.10246],[9.5602,39.10394],[9.55456,39.10528],[9.55044,39.10033],[9.54637,39.09925],[9.54526,39.09577],[9.53423,39.09566],[9.54258,39.09058],[9.54037,39.08703],[9.53736,39.08096],[9.54637,39.0819],[9.54858,39.07641],[9.55456,39.07539],[9.55947,39.07895],[9.56585,39.07862],[9.56569,39.08436],[9.56873,39.08703],[9.57191,39.09058]]]}},{"type":"Feature","properties":{"id":42},"geometry":{"type":"Polygon","coordinates":[[[16.48953,43.17031],[16.48833,43.17453],[16.48567,43.17827],[16.48201,43.18151],[16.4749,43.17853],[16.47142,43.18281],[16.46602,43.1831],[16.46448,43.17766],[16.4588,43.17736],[16.45823,43.17361],[16.46033,43.17031],[16.45266,43.16562],[16.45845,43.16306],[16.46102,43.1593],[16.46782,43.16177],[16.47142,43.16117],[16.47705,43.15698],[16.48077,43.16041],[16.47992,43.16556],[16.48958,43.16577],[16.48953,43.17031]]]}},{"type":"Feature","properties":{"id":43},"geometry":{"type":"Polygon","coordinates":[[[16.4653,43.16289],[16.45765,43.16673],[16.45869,43.17205],[16.45661,43.17804],[16.44705,43.17414],[16.4423,43.17647],[16.43638,43.17689],[16.43356,43.17214],[16.42403,43.1731],[16.42958,43.16607],[16.42199,43.16289],[16.428,43.15932],[16.42829,43.15506],[16.42787,43.14761],[16.43497,43.14554],[16.4423,43.14641],[16.44783,43.14978],[16.45349,43.15103],[16.45327,43.15675],[16.46583,43.15701],[16.4653,43.16289]]]}},{"type":"Feature","properties":{"id":44},"geometry":{"type":"Polygon","coordinates":[[[16.10977,43.07787],[16.11112,43.08209],[16.1033,43.08293],[16.10493,43.08918],[16.09897,43.08905],[16.09425,43.09353],[16.09038,43.08705],[16.08367,43.08908],[16.0801,43.08578],[16.08355,43.08055],[16.08274,43.07787],[16.08259,43.07496],[16.07864,43.06915],[16.08286,43.06581],[16.08839,43.06399],[16.09425,43.06271],[16.09884,43.06702],[16.10232,43.06933],[16.10968,43.06925],[16.10796,43.07445],[16.10977,43.07787]]]}},{"type":"Feature","properties":{"id":45},"geometry":{"type":"Polygon","coordinates":[[[16.16837,43.07822],[16.16219,43.08487],[16.156,43.08963],[16.15022,43.09372],[16.14389,43.09789],[16.13557,43.10331],[16.12723,43.09797],[16.11763,43.09721],[16.11524,43.08958],[16.11227,43.08404],[16.11223,43.07822],[16.10272,43.07],[16.11113,43.06456],[16.11797,43.05958],[16.12874,43.06204],[16.13557,43.06325],[16.14175,43.06359],[16.14823,43.06482],[16.15114,43.06952],[16.1688,43.06991],[16.16837,43.07822]]]}},{"type":"Feature","properties":{"id":46},"geometry":{"type":"Polygon","coordinates":[[[16.23917,43.06359],[16.2472,43.0721],[16.23008,43.07306],[16.23044,43.08191],[16.21951,43.07868],[16.21314,43.08899],[16.20197,43.09003],[16.19927,43.07827],[16.18879,43.0772],[16.18042,43.07177],[16.18804,43.06359],[16.18613,43.05684],[16.18494,43.04784],[16.19175,43.04095],[16.20606,43.04684],[16.21314,43.03859],[16.22236,43.04175],[16.22703,43.04888],[16.23669,43.05043],[16.23966,43.05696],[16.23917,43.06359]]]}},{"type":"Feature","properties":{"id":47},"geometry":{"type":"Polygon","coordinates":[[[16.1711,43.06601],[16.1708,43.06812],[16.17509,43.07314],[16.17079,43.07496],[16.16542,43.07332],[16.16233,43.07326],[16.15832,43.07551],[16.15574,43.07299],[16.15485,43.07019],[16.14786,43.06962],[16.147,43.06601],[16.15328,43.06374],[16.15019,43.05922],[16.15399,43.05718],[16.15869,43.05738],[16.16233,43.05755],[16.16502,43.05965],[16.17049,43.05737],[16.17104,43.06114],[16.17409,43.06307],[16.1711,43.06601]]]}},{"type":"Feature","properties":{"id":48},"geometry":{"type":"Polygon","coordinates":[[[15.32633,43.74256],[15.32421,43.74687],[15.32245,43.75122],[15.31611,43.75226],[15.3113,43.75287],[15.30694,43.75652],[15.3011,43.75637],[15.29516,43.75502],[15.29479,43.74934],[15.2932,43.74599],[15.29517,43.74256],[15.28834,43.73791],[15.29422,43.73545],[15.30101,43.73628],[15.30096,43.7284],[15.30694,43.73071],[15.3122,43.73011],[15.31805,43.73079],[15.31638,43.73728],[15.32492,43.73806],[15.32633,43.74256]]]}},{"type":"Feature","properties":{"id":49},"geometry":{"type":"Polygon","coordinates":[[[15.29374,43.8136],[15.29244,43.81709],[15.29405,43.82232],[15.28646,43.82208],[15.28539,43.83001],[15.27846,43.82607],[15.27083,43.83164],[15.26468,43.82818],[15.26662,43.82021],[15.26533,43.81688],[15.25706,43.8136],[15.25848,43.8086],[15.25969,43.80311],[15.26666,43.80111],[15.27198,43.79826],[15.27846,43.79597],[15.2845,43.79928],[15.28845,43.80301],[15.29532,43.80417],[15.29669,43.80904],[15.29374,43.8136]]]}}]}